CCSDS_OMM_VERS = 2.0
CREATION_DATE  = 
ORIGINATOR     = 

OBJECT_NAME    = STARLINK-35815
OBJECT_ID      = 2025-268W
CENTER_NAME    = EARTH
REF_FRAME      = TEME
TIME_SYSTEM    = UTC
MEAN_ELEMENT_THEORY = SGP/SGP4

EPOCH          = 2025-12-26T04:00:01.998720
MEAN_MOTION    = 15.41583453
ECCENTRICITY   = .0001418
INCLINATION    = 43.0005
RA_OF_ASC_NODE = 42.4853
ARG_OF_PERICENTER = 257.8565
MEAN_ANOMALY   = 79.6092

EPHEMERIS_TYPE = 0
CLASSIFICATION_TYPE = U
NORAD_CAT_ID   = 66577
ELEMENT_SET_NO = 999
REV_AT_EPOCH   = 600
BSTAR          = -.53717E-1
MEAN_MOTION_DOT = -.2051968E-1
MEAN_MOTION_DDOT = 0

CCSDS_OMM_VERS = 2.0
CREATION_DATE  = 
ORIGINATOR     = 

OBJECT_NAME    = STARLINK-35743
OBJECT_ID      = 2025-268X
CENTER_NAME    = EARTH
REF_FRAME      = TEME
TIME_SYSTEM    = UTC
MEAN_ELEMENT_THEORY = SGP/SGP4

EPOCH          = 2025-12-26T04:00:01.998720
MEAN_MOTION    = 15.42309296
ECCENTRICITY   = .0001471
INCLINATION    = 43.0001
RA_OF_ASC_NODE = 42.4566
ARG_OF_PERICENTER = 251.4070
MEAN_ANOMALY   = 97.7444

EPHEMERIS_TYPE = 0
CLASSIFICATION_TYPE = U
NORAD_CAT_ID   = 66578
ELEMENT_SET_NO = 999
REV_AT_EPOCH   = 583
BSTAR          = -.49906E-1
MEAN_MOTION_DOT = -.1964258E-1
MEAN_MOTION_DDOT = 0

CCSDS_OMM_VERS = 2.0
CREATION_DATE  = 
ORIGINATOR     = 

OBJECT_NAME    = STARLINK-35868
OBJECT_ID      = 2025-268Y
CENTER_NAME    = EARTH
REF_FRAME      = TEME
TIME_SYSTEM    = UTC
MEAN_ELEMENT_THEORY = SGP/SGP4

EPOCH          = 2025-12-26T04:00:01.998720
MEAN_MOTION    = 15.43261580
ECCENTRICITY   = .0001304
INCLINATION    = 43.0010
RA_OF_ASC_NODE = 42.4300
ARG_OF_PERICENTER = 265.8295
MEAN_ANOMALY   = 94.2294

EPHEMERIS_TYPE = 0
CLASSIFICATION_TYPE = U
NORAD_CAT_ID   = 66579
ELEMENT_SET_NO = 999
REV_AT_EPOCH   = 588
BSTAR          = -.51048E-1
MEAN_MOTION_DOT = -.2062766E-1
MEAN_MOTION_DDOT = 0

CCSDS_OMM_VERS = 2.0
CREATION_DATE  = 
ORIGINATOR     = 

OBJECT_NAME    = STARLINK-35872
OBJECT_ID      = 2025-268Z
CENTER_NAME    = EARTH
REF_FRAME      = TEME
TIME_SYSTEM    = UTC
MEAN_ELEMENT_THEORY = SGP/SGP4

EPOCH          = 2025-12-26T04:00:01.998720
MEAN_MOTION    = 15.44096169
ECCENTRICITY   = .0001358
INCLINATION    = 43.0003
RA_OF_ASC_NODE = 42.4052
ARG_OF_PERICENTER = 261.0289
MEAN_ANOMALY   = 109.4854

EPHEMERIS_TYPE = 0
CLASSIFICATION_TYPE = U
NORAD_CAT_ID   = 66580
ELEMENT_SET_NO = 999
REV_AT_EPOCH   = 600
BSTAR          = -.49445E-1
MEAN_MOTION_DOT = -.2056669E-1
MEAN_MOTION_DDOT = 0

CCSDS_OMM_VERS = 2.0
CREATION_DATE  = 
ORIGINATOR     = 

OBJECT_NAME    = STARLINK-35744
OBJECT_ID      = 2025-268AA
CENTER_NAME    = EARTH
REF_FRAME      = TEME
TIME_SYSTEM    = UTC
MEAN_ELEMENT_THEORY = SGP/SGP4

EPOCH          = 2025-12-26T04:00:01.998720
MEAN_MOTION    = 15.44928558
ECCENTRICITY   = .0001213
INCLINATION    = 43.0006
RA_OF_ASC_NODE = 42.3793
ARG_OF_PERICENTER = 272.3064
MEAN_ANOMALY   = 108.1026

EPHEMERIS_TYPE = 0
CLASSIFICATION_TYPE = U
NORAD_CAT_ID   = 66581
ELEMENT_SET_NO = 999
REV_AT_EPOCH   = 595
BSTAR          = -.47408E-1
MEAN_MOTION_DOT = -.2032196E-1
MEAN_MOTION_DDOT = 0

CCSDS_OMM_VERS = 2.0
CREATION_DATE  = 
ORIGINATOR     = 

OBJECT_NAME    = STARLINK-35746
OBJECT_ID      = 2025-268AB
CENTER_NAME    = EARTH
REF_FRAME      = TEME
TIME_SYSTEM    = UTC
MEAN_ELEMENT_THEORY = SGP/SGP4

EPOCH          = 2025-12-26T04:00:01.998720
MEAN_MOTION    = 15.46381530
ECCENTRICITY   = .0001349
INCLINATION    = 43.0003
RA_OF_ASC_NODE = 42.3439
ARG_OF_PERICENTER = 271.1086
MEAN_ANOMALY   = 123.7139

EPHEMERIS_TYPE = 0
CLASSIFICATION_TYPE = U
NORAD_CAT_ID   = 66582
ELEMENT_SET_NO = 999
REV_AT_EPOCH   = 595
BSTAR          = -.45437E-1
MEAN_MOTION_DOT = -.2046676E-1
MEAN_MOTION_DDOT = 0

CCSDS_OMM_VERS = 2.0
CREATION_DATE  = 
ORIGINATOR     = 

OBJECT_NAME    = STARLINK-35941
OBJECT_ID      = 2025-268AC
CENTER_NAME    = EARTH
REF_FRAME      = TEME
TIME_SYSTEM    = UTC
MEAN_ELEMENT_THEORY = SGP/SGP4

EPOCH          = 2025-12-26T04:00:01.998720
MEAN_MOTION    = 15.47234558
ECCENTRICITY   = .0001539
INCLINATION    = 43.0004
RA_OF_ASC_NODE = 42.3222
ARG_OF_PERICENTER = 269.2172
MEAN_ANOMALY   = 133.9609

EPHEMERIS_TYPE = 0
CLASSIFICATION_TYPE = U
NORAD_CAT_ID   = 66583
ELEMENT_SET_NO = 999
REV_AT_EPOCH   = 600
BSTAR          = -.44699E-1
MEAN_MOTION_DOT = -.2071425E-1
MEAN_MOTION_DDOT = 0

CCSDS_OMM_VERS = 2.0
CREATION_DATE  = 
ORIGINATOR     = 

OBJECT_NAME    = STARLINK-35939
OBJECT_ID      = 2025-268AD
CENTER_NAME    = EARTH
REF_FRAME      = TEME
TIME_SYSTEM    = UTC
MEAN_ELEMENT_THEORY = SGP/SGP4

EPOCH          = 2025-12-26T04:00:01.998720
MEAN_MOTION    = 15.48043223
ECCENTRICITY   = .0001228
INCLINATION    = 43.0000
RA_OF_ASC_NODE = 42.3044
ARG_OF_PERICENTER = 273.4907
MEAN_ANOMALY   = 137.4047

EPHEMERIS_TYPE = 0
CLASSIFICATION_TYPE = U
NORAD_CAT_ID   = 66584
ELEMENT_SET_NO = 999
REV_AT_EPOCH   = 600
BSTAR          = -.43249E-1
MEAN_MOTION_DOT = -.2062934E-1
MEAN_MOTION_DDOT = 0

CCSDS_OMM_VERS = 2.0
CREATION_DATE  = 
ORIGINATOR     = 

OBJECT_NAME    = STARLINK-35963
OBJECT_ID      = 2025-268AE
CENTER_NAME    = EARTH
REF_FRAME      = TEME
TIME_SYSTEM    = UTC
MEAN_ELEMENT_THEORY = SGP/SGP4

EPOCH          = 2025-12-26T04:00:01.998720
MEAN_MOTION    = 15.34745728
ECCENTRICITY   = .0000964
INCLINATION    = 43.0006
RA_OF_ASC_NODE = 42.6887
ARG_OF_PERICENTER = 274.5202
MEAN_ANOMALY   = 339.0431

EPHEMERIS_TYPE = 0
CLASSIFICATION_TYPE = U
NORAD_CAT_ID   = 66585
ELEMENT_SET_NO = 999
REV_AT_EPOCH   = 605
BSTAR          = -.64132E-1
MEAN_MOTION_DOT = -.1965773E-1
MEAN_MOTION_DDOT = 0

CCSDS_OMM_VERS = 2.0
CREATION_DATE  = 
ORIGINATOR     = 

OBJECT_NAME    = TJS-21
OBJECT_ID      = 2025-269A
CENTER_NAME    = EARTH
REF_FRAME      = TEME
TIME_SYSTEM    = UTC
MEAN_ELEMENT_THEORY = SGP/SGP4

EPOCH          = 2025-12-18T16:58:10.473888
MEAN_MOTION    = 2.00580748
ECCENTRICITY   = .6806869
INCLINATION    = 63.2733
RA_OF_ASC_NODE = 161.7218
ARG_OF_PERICENTER = 269.7428
MEAN_ANOMALY   = 18.6663

EPHEMERIS_TYPE = 0
CLASSIFICATION_TYPE = U
NORAD_CAT_ID   = 66586
ELEMENT_SET_NO = 999
REV_AT_EPOCH   = 55
BSTAR          = -.59507049E-1
MEAN_MOTION_DOT = .1084E-4
MEAN_MOTION_DDOT = 0

CCSDS_OMM_VERS = 2.0
CREATION_DATE  = 
ORIGINATOR     = 

OBJECT_NAME    = STARLINK-36076
OBJECT_ID      = 2025-270A
CENTER_NAME    = EARTH
REF_FRAME      = TEME
TIME_SYSTEM    = UTC
MEAN_ELEMENT_THEORY = SGP/SGP4

EPOCH          = 2025-12-25T15:19:22.837728
MEAN_MOTION    = 15.40737993
ECCENTRICITY   = .00005254
INCLINATION    = 42.9959
RA_OF_ASC_NODE = 118.4597
ARG_OF_PERICENTER = 283.3048
MEAN_ANOMALY   = 76.7750

EPHEMERIS_TYPE = 0
CLASSIFICATION_TYPE = U
NORAD_CAT_ID   = 66588
ELEMENT_SET_NO = 999
REV_AT_EPOCH   = 633
BSTAR          = .10963954E-2
MEAN_MOTION_DOT = .45829E-3
MEAN_MOTION_DDOT = 0

CCSDS_OMM_VERS = 2.0
CREATION_DATE  = 
ORIGINATOR     = 

OBJECT_NAME    = STARLINK-35447
OBJECT_ID      = 2025-270B
CENTER_NAME    = EARTH
REF_FRAME      = TEME
TIME_SYSTEM    = UTC
MEAN_ELEMENT_THEORY = SGP/SGP4

EPOCH          = 2025-12-25T14:53:33.760896
MEAN_MOTION    = 15.40698840
ECCENTRICITY   = .0001173
INCLINATION    = 43.0008
RA_OF_ASC_NODE = 118.3206
ARG_OF_PERICENTER = 257.0782
MEAN_ANOMALY   = 102.9943

EPHEMERIS_TYPE = 0
CLASSIFICATION_TYPE = U
NORAD_CAT_ID   = 66589
ELEMENT_SET_NO = 999
REV_AT_EPOCH   = 644
BSTAR          = .80611E-3
MEAN_MOTION_DOT = .33516E-3
MEAN_MOTION_DDOT = 0

