STARLINK-35815          
1 66577U 25268W   25360.16668980 -.02051968  00000+0 -53717-1 0  9990
2 66577  43.0005  42.4853 0001418 257.8565  79.6092 15.41583453  6001
STARLINK-35743          
1 66578U 25268X   25360.16668980 -.01964258  00000+0 -49906-1 0  9990
2 66578  43.0001  42.4566 0001471 251.4070  97.7444 15.42309296  5833
STARLINK-35868          
1 66579U 25268Y   25360.16668980 -.02062766  00000+0 -51048-1 0  9995
2 66579  43.0010  42.4300 0001304 265.8295  94.2294 15.43261580  5887
STARLINK-35872          
1 66580U 25268Z   25360.16668980 -.02056669  00000+0 -49445-1 0  9990
2 66580  43.0003  42.4052 0001358 261.0289 109.4854 15.44096169  6001
STARLINK-35744          
1 66581U 25268AA  25360.16668980 -.02032196  00000+0 -47408-1 0  9997
2 66581  43.0006  42.3793 0001213 272.3064 108.1026 15.44928558  5958
STARLINK-35746          
1 66582U 25268AB  25360.16668980 -.02046676  00000+0 -45437-1 0  9996
2 66582  43.0003  42.3439 0001349 271.1086 123.7139 15.46381530  5957
STARLINK-35941          
1 66583U 25268AC  25360.16668980 -.02071425  00000+0 -44699-1 0  9996
2 66583  43.0004  42.3222 0001539 269.2172 133.9609 15.47234558  6004
STARLINK-35939          
1 66584U 25268AD  25360.16668980 -.02062934  00000+0 -43249-1 0  9992
2 66584  43.0000  42.3044 0001228 273.4907 137.4047 15.48043223  6004
STARLINK-35963          
1 66585U 25268AE  25360.16668980 -.01965773  00000+0 -64132-1 0  9999
2 66585  43.0006  42.6887 0000964 274.5202 339.0431 15.34745728  6051
TJS-21                  
1 66586U 25269A   25352.70706567  .00001084  00000+0 -59507-1 0  9990
2 66586  63.2733 161.7218 6806869 269.7428  18.6663  2.00580748   558
STARLINK-36076          
1 66588U 25270A   25359.63845877  .00045829  00000+0  10964-2 0  9990
2 66588  42.9959 118.4597 0000525 283.3048  76.7750 15.40737993  6330
STARLINK-35447          
1 66589U 25270B   25359.62052964  .00033516  00000+0  80611-3 0  9994
2 66589  43.0008 118.3206 0001173 257.0782 102.9943 15.40698840  6442
